      2.10          N: GNSS NAV DATA                        RINEX VERSION / TYPE
fic2rin                                 04/29/2019 00:19:43 PGM / RUN BY / DATE
                                                            END OF HEADER
30 19  4 28 18  0  0.0-9.485008195043e-05-6.934897101019e-12 0.000000000000e+00
    3.600000000000e+01 2.346875000000e+01 5.269862368063e-09-1.482158231554e+00
    9.592622518539e-07 3.929153317586e-03 5.435198545456e-06 5.153592092514e+03
    6.480000000000e+04 3.725290298462e-08 7.022850635518e-01-3.166496753693e-08
    9.413167856682e-01 2.625000000000e+02-2.992257648365e+00-8.427493896091e-09
    6.285976121851e-11 1.000000000000e+00 2.051000000000e+03 0.000000000000e+00
    2.400000000000e+00 0.000000000000e+00 3.725290298462e-09 3.600000000000e+01
    5.760000000000e+04 4.000000000000e+00
24 19  4 28 18  0  0.0-6.535882130265e-05-4.547473508865e-13 0.000000000000e+00
    2.400000000000e+01 3.225000000000e+01 5.390938839956e-09-6.162186905190e-01
    1.827254891396e-06 8.278060704470e-03 5.405396223068e-06 5.153715074539e+03
    6.480000000000e+04 1.136213541031e-07 6.082247633913e-01 9.872019290924e-08
    9.390616667277e-01 2.644687500000e+02 6.070154626420e-01-8.577142986719e-09
    8.393206753608e-11 1.000000000000e+00 2.051000000000e+03 0.000000000000e+00
    2.400000000000e+00 0.000000000000e+00 2.793967723846e-09 2.400000000000e+01
    5.760000000000e+04 4.000000000000e+00
22 19  4 28 18  0  0.0-6.918227300048e-04-6.707523425575e-12 0.000000000000e+00
    4.900000000000e+01-6.431250000000e+01 5.265219317519e-09 5.055835621676e-01
   -3.416091203690e-06 7.256309851073e-03 7.970258593559e-06 5.153818140030e+03
    6.480000000000e+04-4.284083843231e-08-1.506497694945e+00-1.341104507446e-07
    9.268750193107e-01 2.120625000000e+02-1.362564048056e+00-8.500711231601e-09
   -2.025084352892e-10 1.000000000000e+00 2.051000000000e+03 0.000000000000e+00
    2.400000000000e+00 0.000000000000e+00-1.816079020500e-08 4.900000000000e+01
    5.760000000000e+04 4.000000000000e+00
16 19  4 28 18  0  0.0-3.606406971812e-05-2.842170943040e-12 0.000000000000e+00
    5.700000000000e+01-2.843750000000e+00 4.066240803822e-09 2.151326893777e+00
   -1.788139343262e-07 1.082686998416e-02 8.417293429375e-06 5.153567249298e+03
    6.480000000000e+04-2.477318048477e-07 1.792506073347e+00-5.215406417847e-08
    9.832380973905e-01 2.329062500000e+02 5.706269977963e-01-7.732107787611e-09
   -2.628680923683e-10 1.000000000000e+00 2.051000000000e+03 0.000000000000e+00
    2.400000000000e+00 0.000000000000e+00-1.071020960808e-08 5.700000000000e+01
    5.760000000000e+04 4.000000000000e+00
27 19  4 28 18  0  0.0-1.191063784063e-04-8.981260180008e-12 0.000000000000e+00
    8.100000000000e+01 4.078125000000e+01 4.141601085738e-09 1.272380433992e+00
    2.380460500717e-06 7.060740143061e-03 7.735565304756e-06 5.153643863678e+03
    6.480000000000e+04 1.862645149231e-09 2.751061454101e+00 1.396983861923e-07
    9.787721888532e-01 2.397500000000e+02 4.743186562930e-01-7.975332204599e-09
   -3.035840740667e-11 1.000000000000e+00 2.051000000000e+03 0.000000000000e+00
    2.400000000000e+00 0.000000000000e+00 1.396983861923e-09 8.100000000000e+01
    5.760000000000e+04 4.000000000000e+00
25 19  4 28 18  0  0.0-7.506986148655e-04-4.092726157978e-12 0.000000000000e+00
    6.300000000000e+01-8.468750000000e+00 4.384468344991e-09-2.590571590265e+00
   -4.600733518600e-07 8.442779420875e-03 7.864087820053e-06 5.153723022461e+03
    6.480000000000e+04 1.080334186554e-07 1.709594709905e+00-1.192092895508e-07
    9.703165940380e-01 2.312187500000e+02 8.889226540766e-01-7.889614348391e-09
   -2.253665302777e-10 1.000000000000e+00 2.051000000000e+03 0.000000000000e+00
    2.400000000000e+00 0.000000000000e+00 6.053596735001e-09 6.300000000000e+01
    5.760000000000e+04 4.000000000000e+00
14 19  4 28 18  0  0.0-8.266931399703e-05 1.477928890381e-12 0.000000000000e+00
    3.900000000000e+01 2.459375000000e+01 4.479472302287e-09 1.044114087566e+00
    1.285225152969e-06 1.052081689704e-02 9.382143616676e-06 5.153697275162e+03
    6.480000000000e+04-2.048909664154e-07-3.095496341905e-01 1.490116119385e-08
    9.608809816241e-01 1.973437500000e+02-1.943688928434e+00-8.128910030303e-09
    2.275094766829e-10 1.000000000000e+00 2.051000000000e+03 0.000000000000e+00
    2.400000000000e+00 0.000000000000e+00-9.778887033463e-09 3.900000000000e+01
    5.760000000000e+04 4.000000000000e+00
12 19  4 28 18  0  0.0 2.472144551575e-04-3.410605131648e-12 0.000000000000e+00
    3.200000000000e+01-4.687500000000e+00 4.104813839116e-09-2.254062337647e+00
   -1.788139343262e-07 7.653553970158e-03 8.374452590942e-06 5.153659330368e+03
    6.480000000000e+04 1.061707735062e-07 1.773588885096e+00-1.117587089539e-08
    9.828807035779e-01 2.292812500000e+02 1.070423769527e+00-7.738179469092e-09
   -2.050085394286e-10 1.000000000000e+00 2.051000000000e+03 0.000000000000e+00
    2.400000000000e+00 0.000000000000e+00-1.210719347000e-08 3.200000000000e+01
    5.760000000000e+04 4.000000000000e+00
20 19  4 28 18  0  0.0 5.243285559118e-04 3.410605131648e-13 0.000000000000e+00
    3.200000000000e+01-6.937500000000e+01 5.068068248242e-09-1.251093191179e+00
   -3.615394234657e-06 4.369156784378e-03 7.366761565208e-06 5.153685245514e+03
    6.480000000000e+04-1.005828380585e-07-1.555287377791e+00 3.539025783539e-08
    9.301471354931e-01 2.236250000000e+02 2.348358992704e+00-8.363205503935e-09
   -2.642967233051e-11 1.000000000000e+00 2.051000000000e+03 0.000000000000e+00
    2.400000000000e+00 0.000000000000e+00-8.847564458847e-09 3.200000000000e+01
    5.760000000000e+04 4.000000000000e+00
15 19  4 28 18  0  0.0-3.159316256642e-04 2.046363078989e-12 0.000000000000e+00
    9.700000000000e+01 7.250000000000e+00 5.192359139743e-09 4.110053334162e-01
    4.936009645462e-07 1.127229817212e-02 9.460374712944e-06 5.153676797867e+03
    6.480000000000e+04-5.960464477539e-08-4.813475885277e-01 1.695007085800e-07
    9.282593099319e-01 1.812500000000e+02 7.719371197652e-01-8.417136321799e-09
    1.971510692762e-10 1.000000000000e+00 2.051000000000e+03 0.000000000000e+00
    3.400000000000e+00 0.000000000000e+00-1.117587089539e-08 9.700000000000e+01
    5.760000000000e+04 4.000000000000e+00
13 19  4 28 18  0  0.0-6.591575220227e-05 1.591615728103e-12 0.000000000000e+00
    7.800000000000e+01 2.246875000000e+01 4.326965949786e-09 2.444250651251e-01
    1.026317477226e-06 3.568496089429e-03 9.244307875633e-06 5.153665166855e+03
    6.480000000000e+04 0.000000000000e+00-2.653664243653e-01-5.587935447693e-09
    9.683307237071e-01 2.052812500000e+02 1.319300914224e+00-7.933901907432e-09
    3.089414400796e-10 1.000000000000e+00 2.051000000000e+03 0.000000000000e+00
    2.400000000000e+00 0.000000000000e+00-1.117587089539e-08 7.800000000000e+01
    5.760000000000e+04 4.000000000000e+00
11 19  4 28 18  0  0.0-6.175166927278e-04 7.617018127348e-12 0.000000000000e+00
    9.300000000000e+01 2.525000000000e+01 5.830242853017e-09-1.596064449119e+00
    1.531094312668e-06 1.657012512442e-02 4.453584551811e-06 5.153698488235e+03
    6.480000000000e+04-2.346932888031e-07-2.925902248784e+00 3.390014171600e-07
    9.094182153647e-01 2.666562500000e+02 1.880396460917e+00-8.888227373204e-09
    6.535986535788e-11 1.000000000000e+00 2.051000000000e+03 0.000000000000e+00
    2.400000000000e+00 0.000000000000e+00-1.257285475731e-08 9.300000000000e+01
    5.760000000000e+04 4.000000000000e+00
23 19  4 28 18  0  0.0-1.883846707642e-04 1.477928890381e-12 0.000000000000e+00
    8.500000000000e+01 2.531250000000e+01 4.905204321449e-09-1.161355525748e-01
    1.452863216400e-06 1.315236813389e-02 9.233132004738e-06 5.153595733643e+03
    6.480000000000e+04 2.607703208923e-08-4.069238973051e-01 2.663582563400e-07
    9.436075690885e-01 1.954062500000e+02-2.268935528786e+00-8.351419298707e-09
    3.403713206889e-10 1.000000000000e+00 2.051000000000e+03 0.000000000000e+00
    2.400000000000e+00 0.000000000000e+00-2.048909664154e-08 8.500000000000e+01
    5.760000000000e+04 4.000000000000e+00
21 19  4 28 18  0  0.0-2.032592892647e-04 7.503331289627e-12 0.000000000000e+00
    8.400000000000e+01-6.531250000000e+00 4.709124725375e-09-2.709098152241e+00
   -3.036111593246e-07 2.467549615540e-02 3.591179847717e-06 5.153752742767e+03
    6.480000000000e+04 2.682209014893e-07-2.540554726885e+00 1.732259988785e-07
    9.481583502811e-01 2.989687500000e+02-1.448445982229e+00-7.918544124861e-09
    1.175048945505e-10 1.000000000000e+00 2.051000000000e+03 0.000000000000e+00
    2.400000000000e+00 0.000000000000e+00-1.024454832077e-08 8.400000000000e+01
    5.760000000000e+04 4.000000000000e+00
19 19  4 28 18  0  0.0-3.253072500229e-04 4.433786671143e-12 0.000000000000e+00
    8.400000000000e+01 5.000000000000e+01 4.015881563301e-09-2.253655210471e+00
    2.609565854073e-06 9.561048937030e-03 7.065013051033e-06 5.153635679245e+03
    6.480000000000e+04 1.341104507446e-07 2.853321350116e+00 4.097819328308e-08
    9.821372544617e-01 2.527500000000e+02 1.384685440907e+00-7.747108412447e-09
    1.975082270104e-10 1.000000000000e+00 2.051000000000e+03 0.000000000000e+00
    2.400000000000e+00 0.000000000000e+00-1.536682248116e-08 8.400000000000e+01
    5.760000000000e+04 4.000000000000e+00
32 19  4 28 18  0  0.0-1.115514896810e-04 1.728039933369e-11 0.000000000000e+00
    6.900000000000e+01 1.896875000000e+01 4.473043463072e-09 1.926086379812e+00
    1.078471541405e-06 2.976213465445e-03 9.426847100258e-06 5.153586568832e+03
    6.480000000000e+04-1.136213541031e-07-3.955283345427e-01-5.587935447693e-09
    9.570702409486e-01 1.917812500000e+02-2.522641214544e+00-7.982475359282e-09
    2.810831368123e-10 1.000000000000e+00 2.051000000000e+03 0.000000000000e+00
    2.400000000000e+00 0.000000000000e+00 4.656612873077e-10 6.900000000000e+01
    5.760000000000e+04 4.000000000000e+00
